{"type": "FeatureCollection", "features": [ {"type": "Feature", "properties": {"norad_id": 66765, "name": "TRANSPORTER-15 DD", "group": "last-30-days", "lat": 47.055250268596325, "lon": 57.91223886131119, "alt_km": 505.39834325298216, "timestamp": "2025-12-20T07:33:49.514048+00:00", "meta": {"OBJECT_NAME": "TRANSPORTER-15 DD", "OBJECT_ID": "2025-276DD", "EPOCH": "2025-12-19T10:47:50.531424", "MEAN_MOTION": 15.18650413, "ECCENTRICITY": 0.0001765, "INCLINATION": 97.4434, "RA_OF_ASC_NODE": 65.1355, "ARG_OF_PERICENTER": 122.4911, "MEAN_ANOMALY": 237.6494, "EPHEMERIS_TYPE": 0, "CLASSIFICATION_TYPE": "U", "NORAD_CAT_ID": 66765, "ELEMENT_SET_NO": 999, "REV_AT_EPOCH": 314, "BSTAR": 0.00038684, "MEAN_MOTION_DOT": 7.949e-05, "MEAN_MOTION_DDOT": 0}, "tle": {"line1": "1 66765U 25276DD  25353.44989041  .00007949  00000+0  38684-3 0  9999", "line2": "2 66765  97.4434  65.1355 0001765 122.4911 237.6494 15.18650413  3144"}}, "geometry": {"type": "Point", "coordinates": [57.91223886131119, 47.055250268596325]}}, {"type": "Feature", "properties": {"norad_id": 66766, "name": "TRANSPORTER-15 DE", "group": "last-30-days", "lat": 35.039262044158434, "lon": 60.710534862833406, "alt_km": 507.6983366990453, "timestamp": "2025-12-20T07:33:49.514058+00:00", "meta": {"OBJECT_NAME": "TRANSPORTER-15 DE", "OBJECT_ID": "2025-276DE", "EPOCH": "2025-12-19T15:35:30.972192", "MEAN_MOTION": 15.18366278, "ECCENTRICITY": 0.000201, "INCLINATION": 97.4374, "RA_OF_ASC_NODE": 65.312, "ARG_OF_PERICENTER": 92.4206, "MEAN_ANOMALY": 267.7258, "EPHEMERIS_TYPE": 0, "CLASSIFICATION_TYPE": "U", "NORAD_CAT_ID": 66766, "ELEMENT_SET_NO": 999, "REV_AT_EPOCH": 317, "BSTAR": 0.00020982, "MEAN_MOTION_DOT": 4.244e-05, "MEAN_MOTION_DDOT": 0}, "tle": {"line1": "1 66766U 25276DE  25353.64966403  .00004244  00000+0  20982-3 0  9996", "line2": "2 66766  97.4374  65.3120 0002010  92.4206 267.7258 15.18366278  3175"}}, "geometry": {"type": "Point", "coordinates": [60.710534862833406, 35.039262044158434]}}, {"type": "Feature", "properties": {"norad_id": 66767, "name": "TRANSPORTER-15 DF", "group": "last-30-days", "lat": 31.468328671152825, "lon": 61.380718211195564, "alt_km": 508.6356962113905, "timestamp": "2025-12-20T07:33:49.514068+00:00", "meta": {"OBJECT_NAME": "TRANSPORTER-15 DF", "OBJECT_ID": "2025-276DF", "EPOCH": "2025-12-19T15:36:24.283584", "MEAN_MOTION": 15.18267281, "ECCENTRICITY": 0.0002061, "INCLINATION": 97.4382, "RA_OF_ASC_NODE": 65.3133, "ARG_OF_PERICENTER": 92.7355, "MEAN_ANOMALY": 267.4115, "EPHEMERIS_TYPE": 0, "CLASSIFICATION_TYPE": "U", "NORAD_CAT_ID": 66767, "ELEMENT_SET_NO": 999, "REV_AT_EPOCH": 317, "BSTAR": 0.00015018, "MEAN_MOTION_DOT": 3.009e-05, "MEAN_MOTION_DDOT": 0}, "tle": {"line1": "1 66767U 25276DF  25353.65028106  .00003009  00000+0  15018-3 0  9999", "line2": "2 66767  97.4382  65.3133 0002061  92.7355 267.4115 15.18267281  3176"}}, "geometry": {"type": "Point", "coordinates": [61.380718211195564, 31.468328671152825]}}, {"type": "Feature", "properties": {"norad_id": 66768, "name": "TRANSPORTER-15 DG", "group": "last-30-days", "lat": 41.02986456905671, "lon": 59.44121748868804, "alt_km": 506.01784943547773, "timestamp": "2025-12-20T07:33:49.514078+00:00", "meta": {"OBJECT_NAME": "TRANSPORTER-15 DG", "OBJECT_ID": "2025-276DG", "EPOCH": "2025-12-19T15:33:58.989024", "MEAN_MOTION": 15.18467388, "ECCENTRICITY": 0.0002273, "INCLINATION": 97.4368, "RA_OF_ASC_NODE": 65.3125, "ARG_OF_PERICENTER": 81.9212, "MEAN_ANOMALY": 278.228, "EPHEMERIS_TYPE": 0, "CLASSIFICATION_TYPE": "U", "NORAD_CAT_ID": 66768, "ELEMENT_SET_NO": 999, "REV_AT_EPOCH": 317, "BSTAR": 0.00025792, "MEAN_MOTION_DOT": 5.248e-05, "MEAN_MOTION_DDOT": 0}, "tle": {"line1": "1 66768U 25276DG  25353.64859941  .00005248  00000+0  25792-3 0  9995", "line2": "2 66768  97.4368  65.3125 0002273  81.9212 278.2280 15.18467388  3172"}}, "geometry": {"type": "Point", "coordinates": [59.44121748868804, 41.02986456905671]}}, {"type": "Feature", "properties": {"norad_id": 66769, "name": "TRANSPORTER-15 DH", "group": "last-30-days", "lat": 37.19763093251811, "lon": 60.28757573690342, "alt_km": 507.60272074018303, "timestamp": "2025-12-20T07:33:49.514090+00:00", "meta": {"OBJECT_NAME": "TRANSPORTER-15 DH", "OBJECT_ID": "2025-276DH", "EPOCH": "2025-12-19T15:34:56.375904", "MEAN_MOTION": 15.18367197, "ECCENTRICITY": 0.0002557, "INCLINATION": 97.443, "RA_OF_ASC_NODE": 65.3267, "ARG_OF_PERICENTER": 111.6402, "MEAN_ANOMALY": 248.5104, "EPHEMERIS_TYPE": 0, "CLASSIFICATION_TYPE": "U", "NORAD_CAT_ID": 66769, "ELEMENT_SET_NO": 999, "REV_AT_EPOCH": 317, "BSTAR": 0.00018671, "MEAN_MOTION_DOT": 3.769e-05, "MEAN_MOTION_DDOT": 0}, "tle": {"line1": "1 66769U 25276DH  25353.64926361  .00003769  00000+0  18671-3 0  9991", "line2": "2 66769  97.4430  65.3267 0002557 111.6402 248.5104 15.18367197  3179"}}, "geometry": {"type": "Point", "coordinates": [60.28757573690342, 37.19763093251811]}}, {"type": "Feature", "properties": {"norad_id": 66770, "name": "TRANSPORTER-15 DJ", "group": "last-30-days", "lat": 39.08694991452391, "lon": 59.89312565828207, "alt_km": 507.8047644687049, "timestamp": "2025-12-20T07:33:49.514100+00:00", "meta": {"OBJECT_NAME": "TRANSPORTER-15 DJ", "OBJECT_ID": "2025-276DJ", "EPOCH": "2025-12-19T15:34:25.963968", "MEAN_MOTION": 15.18367258, "ECCENTRICITY": 0.0002954, "INCLINATION": 97.4459, "RA_OF_ASC_NODE": 65.3356, "ARG_OF_PERICENTER": 130.1383, "MEAN_ANOMALY": 230.011, "EPHEMERIS_TYPE": 0, "CLASSIFICATION_TYPE": "U", "NORAD_CAT_ID": 66770, "ELEMENT_SET_NO": 999, "REV_AT_EPOCH": 317, "BSTAR": 0.00010651, "MEAN_MOTION_DOT": 2.121e-05, "MEAN_MOTION_DDOT": 0}, "tle": {"line1": "1 66770U 25276DJ  25353.64891162  .00002121  00000+0  10651-3 0  9994", "line2": "2 66770  97.4459  65.3356 0002954 130.1383 230.0110 15.18367258  3177"}}, "geometry": {"type": "Point", "coordinates": [59.89312565828207, 39.08694991452391]}}, {"type": "Feature", "properties": {"norad_id": 66771, "name": "TRANSPORTER-15 DK", "group": "last-30-days", "lat": 40.75206914252073, "lon": 59.51953478069295, "alt_km": 506.9952368074855, "timestamp": "2025-12-20T07:33:49.514110+00:00", "meta": {"OBJECT_NAME": "TRANSPORTER-15 DK", "OBJECT_ID": "2025-276DK", "EPOCH": "2025-12-19T15:34:01.591392", "MEAN_MOTION": 15.18425195, "ECCENTRICITY": 0.0002836, "INCLINATION": 97.4455, "RA_OF_ASC_NODE": 65.3339, "ARG_OF_PERICENTER": 120.8335, "MEAN_ANOMALY": 239.3179, "EPHEMERIS_TYPE": 0, "CLASSIFICATION_TYPE": "U", "NORAD_CAT_ID": 66771, "ELEMENT_SET_NO": 999, "REV_AT_EPOCH": 317, "BSTAR": 0.00019786, "MEAN_MOTION_DOT": 4.005e-05, "MEAN_MOTION_DDOT": 0}, "tle": {"line1": "1 66771U 25276DK  25353.64862953  .00004005  00000+0  19786-3 0  9992", "line2": "2 66771  97.4455  65.3339 0002836 120.8335 239.3179 15.18425195  3179"}}, "geometry": {"type": "Point", "coordinates": [59.51953478069295, 40.75206914252073]}}, {"type": "Feature", "properties": {"norad_id": 66772, "name": "TRANSPORTER-15 DL", "group": "last-30-days", "lat": 51.3206069796687, "lon": 56.591034524779474, "alt_km": 504.0941126447142, "timestamp": "2025-12-20T07:33:49.514120+00:00", "meta": {"OBJECT_NAME": "TRANSPORTER-15 DL", "OBJECT_ID": "2025-276DL", "EPOCH": "2025-12-19T15:31:19.536096", "MEAN_MOTION": 15.18627675, "ECCENTRICITY": 0.0002887, "INCLINATION": 97.4448, "RA_OF_ASC_NODE": 65.3337, "ARG_OF_PERICENTER": 108.2208, "MEAN_ANOMALY": 251.934, "EPHEMERIS_TYPE": 0, "CLASSIFICATION_TYPE": "U", "NORAD_CAT_ID": 66772, "ELEMENT_SET_NO": 999, "REV_AT_EPOCH": 317, "BSTAR": 0.00026731, "MEAN_MOTION_DOT": 5.467e-05, "MEAN_MOTION_DDOT": 0}, "tle": {"line1": "1 66772U 25276DL  25353.64675389  .00005467  00000+0  26731-3 0  9999", "line2": "2 66772  97.4448  65.3337 0002887 108.2208 251.9340 15.18627675  3172"}}, "geometry": {"type": "Point", "coordinates": [56.591034524779474, 51.3206069796687]}}, {"type": "Feature", "properties": {"norad_id": 66773, "name": "TRANSPORTER-15 DM", "group": "last-30-days", "lat": 46.34367200521776, "lon": 58.11264452252334, "alt_km": 505.30375547829317, "timestamp": "2025-12-20T07:33:49.514130+00:00", "meta": {"OBJECT_NAME": "TRANSPORTER-15 DM", "OBJECT_ID": "2025-276DM", "EPOCH": "2025-12-19T15:32:34.305792", "MEAN_MOTION": 15.18487387, "ECCENTRICITY": 0.0003023, "INCLINATION": 97.4442, "RA_OF_ASC_NODE": 65.3318, "ARG_OF_PERICENTER": 107.5089, "MEAN_ANOMALY": 252.6476, "EPHEMERIS_TYPE": 0, "CLASSIFICATION_TYPE": "U", "NORAD_CAT_ID": 66773, "ELEMENT_SET_NO": 999, "REV_AT_EPOCH": 317, "BSTAR": 0.00018223, "MEAN_MOTION_DOT": 3.69e-05, "MEAN_MOTION_DDOT": 0}, "tle": {"line1": "1 66773U 25276DM  25353.64761928  .00003690  00000+0  18223-3 0  9998", "line2": "2 66773  97.4442  65.3318 0003023 107.5089 252.6476 15.18487387  3170"}}, "geometry": {"type": "Point", "coordinates": [58.11264452252334, 46.34367200521776]}}, {"type": "Feature", "properties": {"norad_id": 66774, "name": "TRANSPORTER-15 DN", "group": "last-30-days", "lat": 48.520281286951864, "lon": 57.482884352620594, "alt_km": 504.74711602433763, "timestamp": "2025-12-20T07:33:49.514139+00:00", "meta": {"OBJECT_NAME": "TRANSPORTER-15 DN", "OBJECT_ID": "2025-276DN", "EPOCH": "2025-12-19T15:32:01.205952", "MEAN_MOTION": 15.18536608, "ECCENTRICITY": 0.0002916, "INCLINATION": 97.4429, "RA_OF_ASC_NODE": 65.3289, "ARG_OF_PERICENTER": 105.2436, "MEAN_ANOMALY": 254.9121, "EPHEMERIS_TYPE": 0, "CLASSIFICATION_TYPE": "U", "NORAD_CAT_ID": 66774, "ELEMENT_SET_NO": 999, "REV_AT_EPOCH": 317, "BSTAR": 0.00022252, "MEAN_MOTION_DOT": 4.527e-05, "MEAN_MOTION_DDOT": 0}, "tle": {"line1": "1 66774U 25276DN  25353.64723618  .00004527  00000+0  22252-3 0  9990", "line2": "2 66774  97.4429  65.3289 0002916 105.2436 254.9121 15.18536608  3177"}}, "geometry": {"type": "Point", "coordinates": [57.482884352620594, 48.520281286951864]}}]}